STARLINK-2128
1 47404U 21005BH  26090.87900299  .00101698  00000+0  99143-3 0  9991
2 47404  53.0496 267.5195 0004535 246.0039 114.0501 15.65441232287152
